[
  {
    "OBJECT_NAME": "STARLINK-11484 [DTC]",
    "OBJECT_ID": "24237L",
    "EPOCH": "2025-11-11T07:33:15.492960",
    "MEAN_MOTION": 15.70938374,
    "ECCENTRICITY": 0.0002002,
    "INCLINATION": 43.0001,
    "RA_OF_ASC_NODE": 50.2524,
    "ARG_OF_PERICENTER": 270.9486,
    "MEAN_ANOMALY": 89.1152,
    "EPHEMERIS_TYPE": 0,
    "CLASSIFICATION_TYPE": "U",
    "NORAD_CAT_ID": 62277,
    "ELEMENT_SET_NO": 999,
    "REV_AT_EPOCH": 5443,
    "BSTAR": 0.0028671000000000005,
    "MEAN_MOTION_DOT": 0.00386668,
    "MEAN_MOTION_DDOT": 0.0,
    "TLE_LINE1": "1 62277U 24237L   25315.31476265  .00386668  00000+0  28671-2 0  9994",
    "TLE_LINE2": "2 62277  43.0001  50.2524 0002002 270.9486  89.1152 15.70938374 54431",
    "COMMENT": "Grouped by shell and plane from TLE"
  },
  {
    "OBJECT_NAME": "STARLINK-11487 [DTC]",
    "OBJECT_ID": "24237M",
    "EPOCH": "2025-11-11T06:39:55.324224",
    "MEAN_MOTION": 15.71068072,
    "ECCENTRICITY": 0.000441,
    "INCLINATION": 43.0005,
    "RA_OF_ASC_NODE": 50.849,
    "ARG_OF_PERICENTER": 155.031,
    "MEAN_ANOMALY": 205.0772,
    "EPHEMERIS_TYPE": 0,
    "CLASSIFICATION_TYPE": "U",
    "NORAD_CAT_ID": 62278,
    "ELEMENT_SET_NO": 999,
    "REV_AT_EPOCH": 5442,
    "BSTAR": 0.0021543,
    "MEAN_MOTION_DOT": 0.00288607,
    "MEAN_MOTION_DDOT": 0.0,
    "TLE_LINE1": "1 62278U 24237M   25315.27772366  .00288607  00000+0  21543-2 0  9996",
    "TLE_LINE2": "2 62278  43.0005  50.8490 0004410 155.0310 205.0772 15.71068072 54424",
    "COMMENT": "Grouped by shell and plane from TLE"
  },
  {
    "OBJECT_NAME": "STARLINK-11499 [DTC]",
    "OBJECT_ID": "24237N",
    "EPOCH": "2025-11-11T06:56:31.688160",
    "MEAN_MOTION": 15.70931554,
    "ECCENTRICITY": 0.0001121,
    "INCLINATION": 42.9985,
    "RA_OF_ASC_NODE": 50.9413,
    "ARG_OF_PERICENTER": 221.5934,
    "MEAN_ANOMALY": 138.4849,
    "EPHEMERIS_TYPE": 0,
    "CLASSIFICATION_TYPE": "U",
    "NORAD_CAT_ID": 62279,
    "ELEMENT_SET_NO": 999,
    "REV_AT_EPOCH": 5435,
    "BSTAR": 0.002098,
    "MEAN_MOTION_DOT": 0.00279056,
    "MEAN_MOTION_DDOT": 0.0,
    "TLE_LINE1": "1 62279U 24237N   25315.28925565  .00279056  00000+0  20980-2 0  9991",
    "TLE_LINE2": "2 62279  42.9985  50.9413 0001121 221.5934 138.4849 15.70931554 54352",
    "COMMENT": "Grouped by shell and plane from TLE"
  }
]